{
  "type": "Feature",
  "properties": {
    "id": "guwahati_shillong",
    "name": "Guwahati → Shillong (NH-6 / GS Road)",
    "mode": "car",
    "source": "OSM-derived NH-6 / NH-40 vertices"
  },
  "geometry": {
    "type": "LineString",
    "coordinates": [
      [91.7362, 26.1445],
      [91.7504, 26.1378],
      [91.7682, 26.1284],
      [91.7881, 26.1222],
      [91.8054, 26.1201],
      [91.8210, 26.1190],
      [91.8412, 26.1104],
      [91.8631, 26.1000],
      [91.8724, 26.0802],
      [91.8780, 26.0510],
      [91.8816, 25.9994],
      [91.8800, 25.9080],
      [91.8842, 25.8506],
      [91.8890, 25.7480],
      [91.8931, 25.6998],
      [91.8960, 25.6530],
      [91.8952, 25.6194],
      [91.8930, 25.5788]
    ]
  }
}
