{
  "type": "Feature",
  "properties": {
    "id": "kaziranga_safari",
    "name": "Kaziranga Central Range safari (Kohora approach)",
    "mode": "car",
    "source": "OSM NH-37 + Central Range jeep track vertices"
  },
  "geometry": {
    "type": "LineString",
    "coordinates": [
      [93.4112, 26.4880],
      [93.4110, 26.5050],
      [93.4106, 26.5220],
      [93.4102, 26.5350],
      [93.4094, 26.5420],
      [93.4078, 26.5485],
      [93.4040, 26.5580],
      [93.4000, 26.5720],
      [93.3980, 26.5900],
      [93.4000, 26.6200],
      [93.3880, 26.6380],
      [93.3600, 26.6320],
      [93.3680, 26.6050],
      [93.3900, 26.5780],
      [93.4112, 26.5765],
      [93.4112, 26.5300],
      [93.4112, 26.4880]
    ]
  }
}
