{
  "type": "Feature",
  "properties": {
    "id": "tezpur_tawang",
    "name": "Tezpur → Bomdila → Tawang (NH-13)",
    "mode": "car",
    "source": "OSM-derived NH-13 / Bhalukpong–Sela vertices"
  },
  "geometry": {
    "type": "LineString",
    "coordinates": [
      [92.8000, 26.6330],
      [92.7904, 26.7210],
      [92.7730, 26.8300],
      [92.7002, 26.9214],
      [92.6450, 27.0110],
      [92.6100, 27.0380],
      [92.5406, 27.1212],
      [92.4630, 27.2170],
      [92.4080, 27.2650],
      [92.3404, 27.3106],
      [92.2670, 27.3500],
      [92.1802, 27.4310],
      [92.1050, 27.5040],
      [92.0406, 27.5412],
      [91.9800, 27.5750],
      [91.9204, 27.5822],
      [91.8650, 27.5860]
    ]
  }
}
